NORAD_CAT_ID,OBJECT_NAME,OBJECT_TYPE,EPOCH,MEAN_MOTION,ECCENTRICITY,INCLINATION,RA_OF_ASC_NODE,ARG_OF_PERICENTER,MEAN_ANOMALY,BSTAR,MEAN_MOTION_DOT,MEAN_MOTION_DDOT,TLE_LINE0,TLE_LINE1,TLE_LINE2,SEMIMAJOR_AXIS,PERIOD,APOGEE,PERIGEE,DECAYED
49168.0,STARLINK-3101,PAYLOAD,2022-03-07 12:00:00,15.06038198,0.000327,69.9999,2.7247,274.8942,136.16299999999998,-0.048748,-0.00666708,0.0,0 STARLINK-3101,1 49168U 21082AQ  22066.50001157 -.00666708  00000-0 -48748-1 0  9993,2 49168  69.9999   2.7247 0003270 274.8942 136.1630 15.06038198  3667,6926.458000000001,95.615,550.5880000000002,546.058,0.0
49168.0,STARLINK-3101,PAYLOAD,2022-03-07 22:00:00,15.05453365,0.0003179,70.0003,1.6632,278.9398,230.0825,-0.049422,-0.00665414,0.0,0 STARLINK-3101,1 49168U 21082AQ  22066.91667824 -.00665414  00000-0 -49422-1 0  9990,2 49168  70.0003   1.6632 0003179 278.9398 230.0825 15.05453365  3611,6928.251,95.652,552.319,547.914,0.0
49168.0,STARLINK-3101,PAYLOAD,2022-03-08 06:00:02,15.04980711,0.0003212,70.0,0.8145,281.2357,233.5925,-0.049349,-0.00656617,0.0,0 STARLINK-3101,1 49168U 21082AQ  22067.25002315 -.00656617  00000-0 -49349-1 0  9999,2 49168  70.0000   0.8145 0003212 281.2357 233.5925 15.04980711 28657,6929.7019999999975,95.682,553.793,549.341,0.0
49168.0,STARLINK-3101,PAYLOAD,2022-03-08 14:00:01,15.04516777,0.0003105,70.0,359.9666,270.4115,249.5332,-0.050434,-0.00662349,0.0,0 STARLINK-3101,1 49168U 21082AQ  22067.58334491 -.00662349  00000-0 -50434-1 0  9994,2 49168  70.0000 359.9666 0003105 270.4115 249.5332 15.04516777  3633,6931.126,95.712,555.143,550.839,0.0
49168.0,STARLINK-3101,PAYLOAD,2022-03-08 22:00:00,15.04051008,0.0003156,70.0002,359.1193,277.7944,246.7699,-0.051337,-0.00665631,0.0,0 STARLINK-3101,1 49168U 21082AQ  22067.91667824 -.00665631  00000-0 -51337-1 0  9990,2 49168  70.0002 359.1193 0003156 277.7944 246.7699 15.04051008  3623,6932.557,95.741,556.61,552.234,0.0
49168.0,STARLINK-3101,PAYLOAD,2022-03-09 06:00:00,15.03578085,0.000317,69.9999,358.2725,280.0866,248.5391,-0.051202,-0.00656171,0.0,0 STARLINK-3101,1 49168U 21082AQ  22068.25001157 -.00656171  00000-0 -51202-1 0  9999,2 49168  69.9999 358.2725 0003170 280.0866 248.5391 15.03578085 28806,6934.011,95.772,558.0740000000002,553.678,0.0
49168.0,STARLINK-3101,PAYLOAD,2022-03-09 14:00:01,15.03114006,0.0003111,70.0,357.4264,267.2225,264.9006,-0.052303,-0.00661663,0.0,0 STARLINK-3101,1 49168U 21082AQ  22068.58334491 -.00661663  00000-0 -52303-1 0  9990,2 49168  70.0000 357.4264 0003111 267.2225 264.9006 15.03114006  3630,6935.438,95.801,559.461,555.145,0.0
49168.0,STARLINK-3101,PAYLOAD,2022-03-09 22:00:01,15.02648599,0.0003137,70.0002,356.5809,278.4124,256.7109,-0.053305,-0.00665766,0.0,0 STARLINK-3101,1 49168U 21082AQ  22068.91668981 -.00665766  00000-0 -53305-1 0  9992,2 49168  70.0002 356.5809 0003137 278.4124 256.7109 15.02648599  3616,6936.87,95.831,560.911,556.559,0.0
49168.0,STARLINK-3101,PAYLOAD,2022-03-10 06:00:00,15.02168697,0.0003102,69.9999,355.7357,270.3456,267.0961,-0.051838,-0.00640866,0.0,0 STARLINK-3101,1 49168U 21082AQ  22069.25001157 -.00640866  00000-0 -51838-1 0  9999,2 49168  69.9999 355.7357 0003102 270.3456 267.0961 15.02168697 28959,6938.347,95.861,562.365,558.06,0.0
49168.0,STARLINK-3101,PAYLOAD,2022-03-10 14:00:01,15.01598314,0.0003146,70.0,354.8909,271.7208,267.5478,-0.0036505,-0.00047213,0.0,0 STARLINK-3101,1 49168U 21082AQ  22069.58334491 -.00047213  00000-0 -36505-2 0  9997,2 49168  70.0000 354.8909 0003146 271.7208 267.5478 15.01598314  3612,6940.104,95.898,564.153,559.786,0.0
49168.0,STARLINK-3101,PAYLOAD,2022-03-10 20:00:01,15.01569179,0.0003184,70.0003,354.2575,273.4924,176.81599999999997,-4.4759e-05,-6.77e-06,0.0,0 STARLINK-3101,1 49168U 21082AQ  22069.83334491 -.00000677  00000-0 -44759-4 0  9990,2 49168  70.0003 354.2575 0003184 273.4924 176.8160 15.01569179 29035,6940.194,95.9,564.269,559.849,0.0
49168.0,STARLINK-3101,PAYLOAD,2022-03-10 22:00:01,15.01570824,0.0003153,70.0002,354.0462,274.7389,265.9738,-0.0003382,-4.484e-05,0.0,0 STARLINK-3101,1 49168U 21082AQ  22069.91668981 -.00004484  00000-0 -33820-3 0  9999,2 49168  70.0002 354.0462 0003153 274.7389 265.9738 15.01570824  3629,6940.189,95.9,564.242,559.866,0.0
49168.0,STARLINK-3101,PAYLOAD,2022-03-11 06:00:00,15.01564867,0.0003191,70.0026,353.1942,276.4305,265.6244,0.0027661,0.00035998,0.0,0 STARLINK-3101,1 49168U 21082AQ  22070.25001157  .00035998  00000-0  27661-2 0  9991,2 49168  70.0026 353.1942 0003191 276.4305 265.6244 15.01564867 29107,6940.206999999999,95.9,564.2869999999998,559.8580000000002,0.0
49168.0,STARLINK-3101,PAYLOAD,2022-03-11 14:00:01,15.01554603,0.0003133,70.0026,352.3496,270.6822,272.7593,0.0038336,0.00050013,0.0,0 STARLINK-3101,1 49168U 21082AQ  22070.58334491  .00050013  00000-0  38336-2 0  9993,2 49168  70.0026 352.3496 0003133 270.6822 272.7593 15.01554603  3596,6940.239000000001,95.901,564.278,559.93,0.0
49168.0,STARLINK-3101,PAYLOAD,2022-03-11 22:00:00,15.0162237,0.0003148,70.003,351.5048,271.0389,273.7876,-0.0026003,-0.00033743,0.0,0 STARLINK-3101,1 49168U 21082AQ  22070.91667824 -.00033743  00000-0 -26003-2 0  9990,2 49168  70.0030 351.5048 0003148 271.0389 273.7876 15.01622370  3619,6940.03,95.896,564.08,559.71,0.0
49168.0,STARLINK-3101,PAYLOAD,2022-03-12 06:00:00,15.01618952,0.0003095,70.0017,350.663,276.9941,269.2484,-0.0012477,-0.00016279,0.0,0 STARLINK-3101,1 49168U 21082AQ  22071.25001157 -.00016279  00000-0 -12477-2 0  9994,2 49168  70.0017 350.6630 0003095 276.9941 269.2484 15.01618952 29254,6940.041,95.896,564.054,559.758,0.0
49168.0,STARLINK-3101,PAYLOAD,2022-03-12 14:00:01,15.01578798,0.0003089,70.0009,349.8213,273.7532,273.932,-0.0269,-0.00333435,0.0,0 STARLINK-3101,1 49168U 21082AQ  22071.58334491 -.00333435  00000-0 -26900-1 0  9991,2 49168  70.0009 349.8213 0003089 273.7532 273.9320 15.01578798 29306,6940.1640000000025,95.899,564.173,559.886,0.0
49168.0,STARLINK-3101,PAYLOAD,2022-03-12 22:00:00,15.01392431,0.0003148,70.0002,348.9795,278.1891,270.7362,-0.05506,-0.00665219,0.0,0 STARLINK-3101,1 49168U 21082AQ  22071.91667824 -.00665219  00000-0 -55060-1 0  9994,2 49168  70.0002 348.9795 0003148 278.1891 270.7362 15.01392431 29351,6940.739000000001,95.911,564.789,560.419,0.0
49168.0,STARLINK-3101,PAYLOAD,2022-03-13 06:00:00,15.00921219,0.0003081,69.9999,348.1362,269.7429,279.9451,-0.055092,-0.00657871,0.0,0 STARLINK-3101,1 49168U 21082AQ  22072.25001157 -.00657871  00000-0 -55092-1 0  9993,2 49168  69.9999 348.1362 0003081 269.7429 279.9451 15.00921219 29401,6942.191,95.941,566.195,561.9169999999998,0.0
49168.0,STARLINK-3101,PAYLOAD,2022-03-13 14:00:01,15.0045513,0.0003078,69.9999,347.2936,268.5834,281.4149,-0.055976,-0.00660128,0.0,0 STARLINK-3101,1 49168U 21082AQ  22072.58334491 -.00660128  00000-0 -55976-1 0  9999,2 49168  69.9999 347.2936 0003078 268.5834 281.4149 15.00455130  3612,6943.629,95.971,567.631,563.357,0.0
49168.0,STARLINK-3101,PAYLOAD,2022-03-13 22:00:01,14.99989969,0.0003109,70.0002,346.4516,278.9337,270.877,-0.05711,-0.00665,0.0,0 STARLINK-3101,1 49168U 21082AQ  22072.91668981 -.00665000  00000-0 -57110-1 0  9996,2 49168  70.0002 346.4516 0003109 278.9337 270.8770 14.99989969  3614,6945.064,96.001,569.089,564.77,0.0
49168.0,STARLINK-3101,PAYLOAD,2022-03-14 06:00:00,14.9951921,0.0003086,69.9999,345.6101,269.9822,278.9566,-0.057218,-0.00658527,0.0,0 STARLINK-3101,1 49168U 21082AQ  22073.25001157 -.00658527  00000-0 -57218-1 0  9995,2 49168  69.9999 345.6101 0003086 269.9822 278.9566 14.99519210 29551,6946.518,96.031,570.526,566.239,0.0
49168.0,STARLINK-3101,PAYLOAD,2022-03-14 14:00:01,14.99052653,0.0003083,69.9999,344.7694,270.2156,277.4143,-0.058072,-0.00660148,0.0,0 STARLINK-3101,1 49168U 21082AQ  22073.58335648 -.00660148  00000-0 -58072-1 0  9997,2 49168  69.9999 344.7694 0003083 270.2156 277.4143 14.99052653  3594,6947.959,96.061,571.966,567.682,0.0
49168.0,STARLINK-3101,PAYLOAD,2022-03-14 20:00:01,14.98703861,0.0003188999999999,70.0002,344.1392,271.3641,184.8068,-0.058921,-0.00663518,0.0,0 STARLINK-3101,1 49168U 21082AQ  22073.83334491 -.00663518  00000-0 -58921-1 0  9997,2 49168  70.0002 344.1392 0003189 271.3641 184.8068 14.98703861  3599,6949.0369999999975,96.083,573.118,568.686,0.0
49168.0,STARLINK-3101,PAYLOAD,2022-03-15 00:00:00,14.98468535,0.000314,70.0001,343.7194,277.7377,357.3279,-0.059072,-0.006613,0.0,0 STARLINK-3101,1 49168U 21082AQ  22074.00001157 -.00661300  00000-0 -59072-1 0  9992,2 49168  70.0001 343.7194 0003140 277.7377 357.3279 14.98468535 29669,6949.765,96.098,573.812,569.447,0.0
49168.0,STARLINK-3101,PAYLOAD,2022-03-15 02:00:01,14.98353869,0.0003259,70.0001,343.5095,279.1639,85.2951,-0.059549,-0.00664453,0.0,0 STARLINK-3101,1 49168U 21082AQ  22074.08334491 -.00664453  00000-0 -59549-1 0  9991,2 49168  70.0001 343.5095 0003259 279.1639  85.2951 14.98353869  3585,6950.119000000002,96.105,574.249,569.719,0.0
49168.0,STARLINK-3101,PAYLOAD,2022-03-15 22:00:00,14.97130195,0.0003127,70.0002,341.412,277.5612,258.9268,-0.048036,-0.00521932,0.0,0 STARLINK-3101,1 49168U 21082AQ  22074.91667824 -.00521932  00000-0 -48036-1 0  9995,2 49168  70.0002 341.4120 0003127 277.5612 258.9268 14.97130195  3594,6953.906,96.184,577.945,573.596,0.0
49168.0,STARLINK-3101,PAYLOAD,2022-03-16 06:00:00,14.96714195,0.000312,69.9998,340.5735,268.3557,263.9497,0.0001947,2.137e-05,0.0,0 STARLINK-3101,1 49168U 21082AQ  22075.25001157  .00002137  00000-0  19470-3 0  9995,2 49168  69.9998 340.5735 0003120 268.3557 263.9497 14.96714195 29850,6955.194,96.211,579.229,574.889,0.0
49168.0,STARLINK-3101,PAYLOAD,2022-03-16 14:00:01,14.96489128,0.0003306,70.001,339.7334,272.27,255.7195,0.027748,0.00331118,0.0,0 STARLINK-3101,1 49168U 21082AQ  22075.58334491  .00331118  00000-0  27748-1 0  9990,2 49168  70.0010 339.7334 0003306 272.2700 255.7195 14.96489128  3595,6955.891,96.225,580.056,575.457,0.0
